{"fetched_at":"2026-07-14T17:40:18.029Z","source":"https://celestrak.org/NORAD/elements/gp.php?GROUP=globalstar&FORMAT=JSON","constellation":"globalstar","records":[{"OBJECT_NAME":"GLOBALSTAR M080","OBJECT_ID":"2011-080B","EPOCH":"2026-07-14T05:32:13.344864","CLASSIFICATION_TYPE":"U","MEAN_MOTION":12.62257375,"ECCENTRICITY":0.0000321,"INCLINATION":52.0067,"RA_OF_ASC_NODE":296.6816,"ARG_OF_PERICENTER":80.5827,"MEAN_ANOMALY":291.8738,"EPHEMERIS_TYPE":0,"NORAD_CAT_ID":38041,"ELEMENT_SET_NO":999,"REV_AT_EPOCH":67230,"BSTAR":0.00010336,"MEAN_MOTION_DOT":-8.5e-7,"MEAN_MOTION_DDOT":0},{"OBJECT_NAME":"GLOBALSTAR M082","OBJECT_ID":"2011-080C","EPOCH":"2026-07-13T11:22:34.563360","CLASSIFICATION_TYPE":"U","MEAN_MOTION":12.62264119,"ECCENTRICITY":0.00002074,"INCLINATION":52.0063,"RA_OF_ASC_NODE":254.4891,"ARG_OF_PERICENTER":94.8998,"MEAN_ANOMALY":7.2449,"EPHEMERIS_TYPE":0,"NORAD_CAT_ID":38042,"ELEMENT_SET_NO":999,"REV_AT_EPOCH":67291,"BSTAR":0.00018316901,"MEAN_MOTION_DOT":-7.1e-7,"MEAN_MOTION_DDOT":0},{"OBJECT_NAME":"GLOBALSTAR M092","OBJECT_ID":"2011-080D","EPOCH":"2026-07-13T10:23:34.313856","CLASSIFICATION_TYPE":"U","MEAN_MOTION":12.62267776,"ECCENTRICITY":0.00008063,"INCLINATION":52.0104,"RA_OF_ASC_NODE":345.0105,"ARG_OF_PERICENTER":100.4772,"MEAN_ANOMALY":294.7204,"EPHEMERIS_TYPE":0,"NORAD_CAT_ID":38043,"ELEMENT_SET_NO":999,"REV_AT_EPOCH":67136,"BSTAR":0.000088877017,"MEAN_MOTION_DOT":-8.8e-7,"MEAN_MOTION_DDOT":0},{"OBJECT_NAME":"GLOBALSTAR M090","OBJECT_ID":"2011-080E","EPOCH":"2026-07-13T08:05:43.649664","CLASSIFICATION_TYPE":"U","MEAN_MOTION":12.62269392,"ECCENTRICITY":0.00004407,"INCLINATION":52.0109,"RA_OF_ASC_NODE":248.8695,"ARG_OF_PERICENTER":97.8861,"MEAN_ANOMALY":341.5157,"EPHEMERIS_TYPE":0,"NORAD_CAT_ID":38044,"ELEMENT_SET_NO":999,"REV_AT_EPOCH":67301,"BSTAR":0.00021234763,"MEAN_MOTION_DOT":-6.6e-7,"MEAN_MOTION_DDOT":0},{"OBJECT_NAME":"GLOBALSTAR M086","OBJECT_ID":"2011-080F","EPOCH":"2026-07-13T08:37:00.947136","CLASSIFICATION_TYPE":"U","MEAN_MOTION":12.6228771,"ECCENTRICITY":0.00015547,"INCLINATION":51.9878,"RA_OF_ASC_NODE":248.689,"ARG_OF_PERICENTER":109.3959,"MEAN_ANOMALY":332.3649,"EPHEMERIS_TYPE":0,"NORAD_CAT_ID":38045,"ELEMENT_SET_NO":999,"REV_AT_EPOCH":67296,"BSTAR":0.00013766447,"MEAN_MOTION_DOT":-7.9e-7,"MEAN_MOTION_DDOT":0},{"OBJECT_NAME":"GLOBALSTAR M097","OBJECT_ID":"2013-005A","EPOCH":"2026-07-14T02:03:04.811040","CLASSIFICATION_TYPE":"U","MEAN_MOTION":12.62271416,"ECCENTRICITY":0.0000403,"INCLINATION":52.0026,"RA_OF_ASC_NODE":161.4542,"ARG_OF_PERICENTER":38.4626,"MEAN_ANOMALY":321.6269,"EPHEMERIS_TYPE":0,"NORAD_CAT_ID":39072,"ELEMENT_SET_NO":999,"REV_AT_EPOCH":62030,"BSTAR":-0.00011866,"MEAN_MOTION_DOT":-0.00000125,"MEAN_MOTION_DDOT":0},{"OBJECT_NAME":"GLOBALSTAR M093","OBJECT_ID":"2013-005B","EPOCH":"2026-07-14T01:24:31.792320","CLASSIFICATION_TYPE":"U","MEAN_MOTION":12.62266337,"ECCENTRICITY":0.0000626,"INCLINATION":52.0087,"RA_OF_ASC_NODE":154.8927,"ARG_OF_PERICENTER":43.0172,"MEAN_ANOMALY":317.0744,"EPHEMERIS_TYPE":0,"NORAD_CAT_ID":39073,"ELEMENT_SET_NO":999,"REV_AT_EPOCH":62025,"BSTAR":-0.000090865,"MEAN_MOTION_DOT":-0.0000012,"MEAN_MOTION_DDOT":0},{"OBJECT_NAME":"GLOBALSTAR M094","OBJECT_ID":"2013-005C","EPOCH":"2026-07-12T20:53:56.397696","CLASSIFICATION_TYPE":"U","MEAN_MOTION":12.62264077,"ECCENTRICITY":0.00009481,"INCLINATION":51.9967,"RA_OF_ASC_NODE":72.6003,"ARG_OF_PERICENTER":58.272,"MEAN_ANOMALY":301.8239,"EPHEMERIS_TYPE":0,"NORAD_CAT_ID":39074,"ELEMENT_SET_NO":999,"REV_AT_EPOCH":62171,"BSTAR":-0.000095421143,"MEAN_MOTION_DOT":-0.00000121,"MEAN_MOTION_DDOT":0},{"OBJECT_NAME":"GLOBALSTAR M096","OBJECT_ID":"2013-005D","EPOCH":"2026-07-14T01:43:47.942688","CLASSIFICATION_TYPE":"U","MEAN_MOTION":12.62265672,"ECCENTRICITY":0.0000715,"INCLINATION":52.0067,"RA_OF_ASC_NODE":117.7647,"ARG_OF_PERICENTER":39.407,"MEAN_ANOMALY":320.6849,"EPHEMERIS_TYPE":0,"NORAD_CAT_ID":39075,"ELEMENT_SET_NO":999,"REV_AT_EPOCH":62078,"BSTAR":-0.00005927,"MEAN_MOTION_DOT":-0.00000114,"MEAN_MOTION_DDOT":0},{"OBJECT_NAME":"GLOBALSTAR M078","OBJECT_ID":"2013-005E","EPOCH":"2026-07-13T23:11:04.268832","CLASSIFICATION_TYPE":"U","MEAN_MOTION":12.62260142,"ECCENTRICITY":0.0000803,"INCLINATION":51.9843,"RA_OF_ASC_NODE":202.0614,"ARG_OF_PERICENTER":334.3792,"MEAN_ANOMALY":25.7034,"EPHEMERIS_TYPE":0,"NORAD_CAT_ID":39076,"ELEMENT_SET_NO":999,"REV_AT_EPOCH":61939,"BSTAR":0.000021937,"MEAN_MOTION_DOT":-0.000001,"MEAN_MOTION_DDOT":0},{"OBJECT_NAME":"GLOBALSTAR M095","OBJECT_ID":"2013-005F","EPOCH":"2026-07-14T03:37:32.689056","CLASSIFICATION_TYPE":"U","MEAN_MOTION":12.62264181,"ECCENTRICITY":0.0000386,"INCLINATION":52.0053,"RA_OF_ASC_NODE":199.1397,"ARG_OF_PERICENTER":13.8933,"MEAN_ANOMALY":346.1944,"EPHEMERIS_TYPE":0,"NORAD_CAT_ID":39077,"ELEMENT_SET_NO":999,"REV_AT_EPOCH":61927,"BSTAR":0.000010748,"MEAN_MOTION_DOT":-0.00000102,"MEAN_MOTION_DDOT":0},{"OBJECT_NAME":"GLOBALSTAR M087","OBJECT_ID":"2022-064A","EPOCH":"2026-07-13T16:32:17.032128","CLASSIFICATION_TYPE":"U","MEAN_MOTION":12.62269319,"ECCENTRICITY":0.0000916,"INCLINATION":52.0015,"RA_OF_ASC_NODE":341.7692,"ARG_OF_PERICENTER":84.36,"MEAN_ANOMALY":275.7371,"EPHEMERIS_TYPE":0,"NORAD_CAT_ID":52888,"ELEMENT_SET_NO":999,"REV_AT_EPOCH":19448,"BSTAR":-1.4931e-7,"MEAN_MOTION_DOT":-0.00000104,"MEAN_MOTION_DDOT":0}]}
