GLOBALSTAR M080         
1 38041U 11080B   26195.23071001 -.00000085  00000+0  10336-3 0  9992
2 38041  52.0067 296.6816 0000321  80.5827 291.8738 12.62257375672308
GLOBALSTAR M082         
1 38042U 11080C   26194.47401115 -.00000071  00000+0  18317-3 0  9993
2 38042  52.0063 254.4891 0000207  94.8998   7.2449 12.62264119672919
GLOBALSTAR M092         
1 38043U 11080D   26194.43303604 -.00000088  00000+0  88877-4 0  9991
2 38043  52.0104 345.0105 0000806 100.4772 294.7204 12.62267776671362
GLOBALSTAR M090         
1 38044U 11080E   26194.33731076 -.00000066  00000+0  21235-3 0  9999
2 38044  52.0109 248.8695 0000440  97.8861 341.5157 12.62269392673012
GLOBALSTAR M086         
1 38045U 11080F   26194.35903874 -.00000079  00000+0  13766-3 0  9993
2 38045  51.9878 248.6890 0001554 109.3959 332.3649 12.62287710672964
GLOBALSTAR M097         
1 39072U 13005A   26195.08547235 -.00000125  00000+0 -11866-3 0  9991
2 39072  52.0026 161.4542 0000403  38.4626 321.6269 12.62271416620309
GLOBALSTAR M093         
1 39073U 13005B   26195.05870130 -.00000120  00000+0 -90865-4 0  9994
2 39073  52.0087 154.8927 0000626  43.0172 317.0744 12.62266337620252
GLOBALSTAR M094         
1 39074U 13005C   26193.87079164 -.00000121  00000+0 -95421-4 0  9995
2 39074  51.9967  72.6003 0000948  58.2720 301.8239 12.62264077621715
GLOBALSTAR M096         
1 39075U 13005D   26195.07208267 -.00000114  00000+0 -59270-4 0  9992
2 39075  52.0067 117.7647 0000715  39.4070 320.6849 12.62265672620789
GLOBALSTAR M078         
1 39076U 13005E   26194.96602163 -.00000100  00000+0  21937-4 0  9996
2 39076  51.9843 202.0614 0000803 334.3792  25.7034 12.62260142619399
GLOBALSTAR M095         
1 39077U 13005F   26195.15107279 -.00000102  00000+0  10748-4 0  9997
2 39077  52.0053 199.1397 0000386  13.8933 346.1944 12.62264181619275
GLOBALSTAR M087         
1 52888U 22064A   26194.68908602 -.00000104  00000+0 -14931-6 0  9996
2 52888  52.0015 341.7692 0000916  84.3600 275.7371 12.62269319194484
